{
  "norad_id": 59938,
  "name": "STARLINK-31876",
  "history": [
    {
      "epoch": "2026-03-28T17:11:09.991104",
      "apogee_km": 483.8569748017735,
      "perigee_km": 482.2355399743874,
      "latitude_deg": -40.15801471341115,
      "longitude_deg": -117.45556544000283,
      "semi_major_axis_km": 6861.18325738808,
      "eccentricity": 0.00011816,
      "inclination_deg": 43.0009,
      "raan_deg": 224.9876,
      "arg_perigee_deg": 271.334,
      "mean_anomaly_deg": 88.7377,
      "mean_motion_rev_day": 15.27580948
    }
  ]
}