{"fetched_at":"2026-03-29T16:36:15Z","count":15609,"tles":[{"name":"STARLINK-31876","line1":"1 59938U 24106S   26087.71608786  .00002055  00000+0  84187-4 0  9996","line2":"2 59938  43.0009 224.9876 0001181 271.3340  88.7377 15.27580948103442","category":"Starlink"}]}